ONEWEB-0053             
1 45157U 20008AC  26161.17569465  .00000568  00000+0  15912-2 0  9999
2 45157  87.8840  37.6810 0002244  73.1735 286.9638 13.10374602306998
ONEWEB-0054             
1 45158U 20008AD  26161.13417553 -.00000348  00000+0 -10345-2 0  9999
2 45158  87.8847  37.6714 0001871  83.2280 276.9060 13.10369595307108
ONEWEB-0056             
1 45159U 20008AE  26161.18222147  .00000669  00000+0  18812-2 0  9999
2 45159  87.8846  37.6557 0001937  89.3953 270.7396 13.10374957307269
ONEWEB-0057             
1 45160U 20008AF  26161.12270555  .00000256  00000+0  69675-3 0  9997
2 45160  87.8839  37.6799 0002233  74.0261 286.1112 13.10369192307424
ONEWEB-0058             
1 45161U 20008AG  26161.18579398  .00000647  00000+0  18165-2 0  9992
2 45161  87.8834  37.6740 0001618  79.3299 280.8010 13.10372131307505
ONEWEB-0059             
1 45162U 20008AH  26161.18247543  .00000644  00000+0  18095-2 0  9996
2 45162  87.8834  37.6735 0001714  74.5402 285.5915 13.10374233307400
ONEWEB-0062             
1 45163U 20008AJ  26161.12906474 -.00000048  00000+0 -17303-3 0  9998
2 45163  87.8843  37.6709 0001402  88.4446 271.6842 13.10369116307261
ONEWEB-0065             
1 45164U 20008AK  26160.93319124 -.00000055  00000+0 -19417-3 0  9993
2 45164  87.8848  37.7179 0002167  81.6326 278.5047 13.10375713306936
ONEWEB-0066             
1 45424U 20020A   26161.12738511  .00000275  00000+0  74041-3 0  9999
2 45424  87.8894  22.4767 0001728  78.4918 281.6404 13.11420080301759
ONEWEB-0067             
1 45425U 20020B   26161.16530872 -.00000167  00000+0 -50638-3 0  9992
2 45425  87.8911  22.3895 0001974  82.2161 277.9191 13.11422131301814
ONEWEB-0080             
1 45426U 20020C   26161.16482890 -.00000175  00000+0 -53099-3 0  9992
2 45426  87.8901  22.4645 0001525  89.9587 270.1715 13.11415512301784
ONEWEB-0090             
1 45427U 20020D   26161.11734635 -.00000412  00000+0 -11990-2 0  9992
2 45427  87.8904  22.4789 0001748  85.7870 274.3458 13.11418793301743
ONEWEB-0061             
1 45428U 20020E   26161.14929709  .00000479  00000+0  13151-2 0  9996
2 45428  87.8900  22.4571 0001760  83.3846 276.7482 13.11416645301703
ONEWEB-0081             
1 45429U 20020F   26161.13078093  .00000335  00000+0  90956-3 0  9997
2 45429  87.8898  22.4716 0001864  78.1641 281.9696 13.11419952301812
ONEWEB-0069             
1 45430U 20020G   26160.90371902  .00000371  00000+0  10120-2 0  9992
2 45430  87.8899  22.5195 0001827  81.3586 278.7749 13.11420696301719
ONEWEB-0031             
1 45431U 20020H   26161.16808013 -.00000265  00000+0 -78339-3 0  9991
2 45431  87.8888  22.4724 0001658  88.4548 271.6770 13.11415948301735
ONEWEB-0027             
1 45432U 20020J   26161.27163250  .00000006  00000+0 -19070-4 0  9991
2 45432  87.9148   7.2387 0001863  97.7506 262.3836 13.16054233305440
ONEWEB-0064             
1 45433U 20020K   26161.09008583 -.00000172  00000+0 -52248-3 0  9997
2 45433  87.8894  22.4795 0001741  89.4708 270.6620 13.11414051301753
ONEWEB-0018             
1 45434U 20020L   26161.12227241 -.00000759  00000+0 -21766-2 0  9997
2 45434  87.8861  22.4736 0001618  66.1652 293.9645 13.11418912301706
ONEWEB-0083             
1 45435U 20020M   26161.11226958 -.00000340  00000+0 -99652-3 0  9997
2 45435  87.8900  22.4680 0001725  84.3124 275.8201 13.11418128301744
ONEWEB-0095             
1 45436U 20020N   26161.02751667  .00002146  00000+0  60187-2 0  9992
2 45436  87.8910  22.4933 0002214  96.8125 263.3255 13.11407477301735
ONEWEB-0092             
1 45437U 20020P   26161.13493106  .00000446  00000+0  12118-2 0  9998
2 45437  87.8901  22.4638 0002154  85.3067 274.8308 13.11956180301869
ONEWEB-0085             
1 45438U 20020Q   26161.11198906 -.00000382  00000+0 -11138-2 0  9999
2 45438  87.8896  22.4753 0001798  84.5292 275.6042 13.11419175301744
ONEWEB-0096             
1 45439U 20020R   26161.11384828 -.00000314  00000+0 -92304-3 0  9990
2 45439  87.8904  22.4704 0001843  86.8776 273.2563 13.11423901301737
ONEWEB-0037             
1 45440U 20020S   26161.14979013  .00000369  00000+0  99842-3 0  9993
2 45440  87.8911  22.4368 0001898  85.6811 274.4534 13.11911492301772
ONEWEB-0042             
1 45441U 20020T   26161.10350799 -.00000608  00000+0 -17525-2 0  9999
2 45441  87.8900  22.4688 0001869  81.6513 278.4827 13.11416060301735
ONEWEB-0098             
1 45442U 20020U   26161.09941151 -.00000446  00000+0 -12946-2 0  9998
2 45442  87.8898  22.4787 0001724  85.5765 274.5560 13.11416418301710
ONEWEB-0055             
1 45443U 20020V   26161.07810333  .00000343  00000+0  93076-3 0  9992
2 45443  87.8897  22.4816 0001726  85.5758 274.5567 13.11413362301685
ONEWEB-0093             
1 45444U 20020W   26161.13431089  .00000489  00000+0  13429-2 0  9991
2 45444  87.8901  22.4634 0002026  73.1640 286.9710 13.11419645301752
ONEWEB-0029             
1 45445U 20020X   26161.16144089  .00000021  00000+0  22142-4 0  9992
2 45445  87.8889  22.4678 0001788  75.5383 284.5943 13.11417879301737
